{
  "links" : {
    "next" : "https://api.nasa.gov/neo/rest/v1/feed?start_date=2008-06-09&end_date=2008-06-09&detailed=true&api_key=t0TVs3DtDT2H8Oy2Zy8m2eVrNsAVKAexjcZXUckd",
    "prev" : "https://api.nasa.gov/neo/rest/v1/feed?start_date=2008-06-07&end_date=2008-06-07&detailed=true&api_key=t0TVs3DtDT2H8Oy2Zy8m2eVrNsAVKAexjcZXUckd",
    "self" : "https://api.nasa.gov/neo/rest/v1/feed?start_date=2008-06-08&end_date=2008-06-08&detailed=true&api_key=t0TVs3DtDT2H8Oy2Zy8m2eVrNsAVKAexjcZXUckd"
  },
  "element_count" : 7,
  "near_earth_objects" : {
    "2008-06-08" : [ {
      "links" : {
        "self" : "https://api.nasa.gov/neo/rest/v1/neo/3518265?api_key=t0TVs3DtDT2H8Oy2Zy8m2eVrNsAVKAexjcZXUckd"
      },
      "neo_reference_id" : "3518265",
      "name" : "(2010 HW20)",
      "nasa_jpl_url" : "http://ssd.jpl.nasa.gov/sbdb.cgi?sstr=3518265",
      "absolute_magnitude_h" : 26.1,
      "estimated_diameter" : {
        "kilometers" : {
          "estimated_diameter_min" : 0.0160160338,
          "estimated_diameter_max" : 0.0358129403
        },
        "meters" : {
          "estimated_diameter_min" : 16.0160337979,
          "estimated_diameter_max" : 35.8129403019
        },
        "miles" : {
          "estimated_diameter_min" : 0.0099518989,
          "estimated_diameter_max" : 0.0222531225
        },
        "feet" : {
          "estimated_diameter_min" : 52.5460443254,
          "estimated_diameter_max" : 117.4965270602
        }
      },
      "is_potentially_hazardous_asteroid" : false,
      "close_approach_data" : [ {
        "close_approach_date" : "2008-06-08",
        "epoch_date_close_approach" : 1212908400000,
        "relative_velocity" : {
          "kilometers_per_second" : "4.6547784753",
          "kilometers_per_hour" : "16757.2025109454",
          "miles_per_hour" : "10412.2739713149"
        },
        "miss_distance" : {
          "astronomical" : "0.1698893858",
          "lunar" : "66.0869750977",
          "kilometers" : "25415092",
          "miles" : "15792206"
        },
        "orbiting_body" : "Earth"
      } ],
      "orbital_data" : {
        "orbit_id" : "8",
        "orbit_determination_date" : "2017-04-06 08:57:42",
        "orbit_uncertainty" : "6",
        "minimum_orbit_intersection" : ".00746229",
        "jupiter_tisserand_invariant" : "6.017",
        "epoch_osculation" : "2458000.5",
        "eccentricity" : ".05011939580042162",
        "semi_major_axis" : "1.011213823457285",
        "inclination" : "8.185945812833006",
        "ascending_node_longitude" : "39.22184827949832",
        "orbital_period" : "371.4179799543668",
        "perihelion_distance" : ".9605323976005719",
        "perihelion_argument" : "60.33528462538528",
        "aphelion_distance" : "1.061895249313998",
        "perihelion_time" : "2458165.711564465778",
        "mean_anomaly" : "199.8673020218687",
        "mean_motion" : ".9692584081261503",
        "equinox" : "J2000"
      }
    }, {
      "links" : {
        "self" : "https://api.nasa.gov/neo/rest/v1/neo/3718388?api_key=t0TVs3DtDT2H8Oy2Zy8m2eVrNsAVKAexjcZXUckd"
      },
      "neo_reference_id" : "3718388",
      "name" : "(2015 HN117)",
      "nasa_jpl_url" : "http://ssd.jpl.nasa.gov/sbdb.cgi?sstr=3718388",
      "absolute_magnitude_h" : 22.9,
      "estimated_diameter" : {
        "kilometers" : {
          "estimated_diameter_min" : 0.0699125232,
          "estimated_diameter_max" : 0.1563291544
        },
        "meters" : {
          "estimated_diameter_min" : 69.9125232246,
          "estimated_diameter_max" : 156.3291544087
        },
        "miles" : {
          "estimated_diameter_min" : 0.0434416145,
          "estimated_diameter_max" : 0.097138403
        },
        "feet" : {
          "estimated_diameter_min" : 229.3718026961,
          "estimated_diameter_max" : 512.8909429502
        }
      },
      "is_potentially_hazardous_asteroid" : false,
      "close_approach_data" : [ {
        "close_approach_date" : "2008-06-08",
        "epoch_date_close_approach" : 1212908400000,
        "relative_velocity" : {
          "kilometers_per_second" : "6.6745477595",
          "kilometers_per_hour" : "24028.3719343153",
          "miles_per_hour" : "14930.2958832972"
        },
        "miss_distance" : {
          "astronomical" : "0.2385814997",
          "lunar" : "92.8082046509",
          "kilometers" : "35691284",
          "miles" : "22177536"
        },
        "orbiting_body" : "Earth"
      } ],
      "orbital_data" : {
        "orbit_id" : "15",
        "orbit_determination_date" : "2017-04-06 08:34:02",
        "orbit_uncertainty" : "5",
        "minimum_orbit_intersection" : ".176816",
        "jupiter_tisserand_invariant" : "3.410",
        "epoch_osculation" : "2458000.5",
        "eccentricity" : ".4877528354835813",
        "semi_major_axis" : "2.314997117714203",
        "inclination" : "3.913352387660631",
        "ascending_node_longitude" : "46.212162525",
        "orbital_period" : "1286.542415386098",
        "perihelion_distance" : "1.185850709412782",
        "perihelion_argument" : "219.5632118825759",
        "aphelion_distance" : "3.444143526015624",
        "perihelion_time" : "2458483.603943577400",
        "mean_anomaly" : "224.8179666616972",
        "mean_motion" : ".2798197678480442",
        "equinox" : "J2000"
      }
    }, {
      "links" : {
        "self" : "https://api.nasa.gov/neo/rest/v1/neo/3744851?api_key=t0TVs3DtDT2H8Oy2Zy8m2eVrNsAVKAexjcZXUckd"
      },
      "neo_reference_id" : "3744851",
      "name" : "(2016 DN2)",
      "nasa_jpl_url" : "http://ssd.jpl.nasa.gov/sbdb.cgi?sstr=3744851",
      "absolute_magnitude_h" : 26.9,
      "estimated_diameter" : {
        "kilometers" : {
          "estimated_diameter_min" : 0.0110803882,
          "estimated_diameter_max" : 0.0247765013
        },
        "meters" : {
          "estimated_diameter_min" : 11.0803882126,
          "estimated_diameter_max" : 24.7765012606
        },
        "miles" : {
          "estimated_diameter_min" : 0.0068850319,
          "estimated_diameter_max" : 0.0153953994
        },
        "feet" : {
          "estimated_diameter_min" : 36.3529808636,
          "estimated_diameter_max" : 81.2877363957
        }
      },
      "is_potentially_hazardous_asteroid" : false,
      "close_approach_data" : [ {
        "close_approach_date" : "2008-06-08",
        "epoch_date_close_approach" : 1212908400000,
        "relative_velocity" : {
          "kilometers_per_second" : "19.0478301509",
          "kilometers_per_hour" : "68572.188543069",
          "miles_per_hour" : "42608.091264442"
        },
        "miss_distance" : {
          "astronomical" : "0.3515154787",
          "lunar" : "136.7395172119",
          "kilometers" : "52585968",
          "miles" : "32675404"
        },
        "orbiting_body" : "Earth"
      } ],
      "orbital_data" : {
        "orbit_id" : "8",
        "orbit_determination_date" : "2017-04-06 08:28:01",
        "orbit_uncertainty" : "7",
        "minimum_orbit_intersection" : ".00537288",
        "jupiter_tisserand_invariant" : "3.769",
        "epoch_osculation" : "2458000.5",
        "eccentricity" : ".5004758236402036",
        "semi_major_axis" : "1.911474874593589",
        "inclination" : "4.283899945802764",
        "ascending_node_longitude" : "161.682021617258",
        "orbital_period" : "965.2755760736874",
        "perihelion_distance" : ".9548279123638076",
        "perihelion_argument" : "31.48132035148402",
        "aphelion_distance" : "2.86812183682337",
        "perihelion_time" : "2458440.558466266921",
        "mean_anomaly" : "195.8799789584668",
        "mean_motion" : ".37295049095132",
        "equinox" : "J2000"
      }
    } ]
  }
}